QIANFAN-9               
1 60387U 24140J   25206.18331860  .00000132  00000+0  18630-3 0  9996
2 60387  88.9849 313.8509 0014750 238.7986 121.1720 13.50954733 48344
QIANFAN-10              
1 60388U 24140K   25206.18746761  .00000113  00000+0  15683-3 0  9991
2 60388  88.9859 313.1850 0013906 213.7203 146.3064 13.50957108 48737
QIANFAN-11              
1 60389U 24140L   25206.22446163  .00000117  00000+0  16207-3 0  9997
2 60389  88.9785 313.8724 0012792 237.5920 122.3994 13.50957220 48231
QIANFAN-12              
1 60390U 24140M   25206.17091427  .00000123  00000+0  17213-3 0  9997
2 60390  88.9828 313.8599 0011422 246.4002 113.5950 13.50957021 48301
QIANFAN-13              
1 60391U 24140N   25206.14212940  .00000126  00000+0  17642-3 0  9999
2 60391  88.9840 313.9454 0011188 249.4958 110.4993 13.50956825 48279
QIANFAN-14              
1 60392U 24140P   25206.24083989  .00000122  00000+0  17112-3 0  9998
2 60392  88.9819 313.8629 0014869 250.3615 109.5931 13.50957966 48299
QIANFAN-15              
1 60393U 24140Q   25206.17512130  .00000122  00000+0  17064-3 0  9992
2 60393  88.9843 313.7929 0010999 233.3928 126.6212 13.50954762 48368
QIANFAN-16              
1 60394U 24140R   25206.23682740  .00000123  00000+0  17220-3 0  9990
2 60394  88.9846 313.9023 0012725 254.2552 105.7196 13.50957096 48321
